TIANWANG 1C (TW-1C)     
1 40926U 15051B   17227.53698623  .00005584  00000-0  12664-3 0  9998
2 40926  97.2255 266.6506 0009921 321.3141 142.7636 15.43430152106071
TIANWANG 1B (TW-1B)     
1 40927U 15051C   17227.52640193  .00005717  00000-0  13453-3 0  9992
2 40927  97.2337 266.6322 0010170 333.2635 165.3214 15.42310889106017
TIANWANG 1A (TW-1A)     
1 40928U 15051D   17227.36711265  .00002795  00000-0  80657-4 0  9998
2 40928  97.2231 262.1185 0012332 354.4853 133.0789 15.36462363105788
LAPAN-A2 (IO-86)        
1 40931U 15052B   17227.48293491  .00000637  00000-0 -41285-6 0  9992
2 40931   5.9992 169.9516 0013661   2.4634 357.5546 14.76535607101748
LQSAT                   
1 40958U 15057A   17227.41582238  .00000036  00000-0  13382-4 0  9996
2 40958  97.9748 301.6910 0016925 234.4634 125.4993 14.72977074 99831
CHUBUSAT-2              
1 41338U 16012B   17226.92097856  .00000312  00000-0  17696-4 0  9992
2 41338  31.0037  99.2294 0014096 280.5163  79.3884 14.99771416 81811
CHUBUSAT-3              
1 41339U 16012C   17227.04083757  .00000271  00000-0  14447-4 0  9997
2 41339  31.0116  97.5210 0014002 287.6262  72.2844 14.99974321 81812
OUFTI-1                 
1 41458U 16025C   17227.15376086  .00001336  00000-0  74709-4 0  9995
2 41458  98.1797 268.1050 0175176  93.2116 268.9166 15.03354667 71439
E-ST@R-II               
1 41459U 16025D   17227.51399466  .00001818  00000-0  10006-3 0  9997
2 41459  98.1821 268.4261 0176202  91.9133 270.2282 15.03195465 71489
AAUSAT 4                
1 41460U 16025E   17227.47533794  .00002290  00000-0  12502-3 0  9996
2 41460  98.1717 268.5210 0168262  89.8719 272.1805 15.04135471 71500
NUSAT 1 (LO-87)         
1 41557U 16033B   17227.18262490  .00001283  00000-0  50810-4 0  9998
2 41557  97.4609 306.6982 0014984 153.6220 206.5785 15.27200256 67431
BEESAT-4                
1 41619U 16040W   17226.68351521  .00001248  00000-0  59504-4 0  9993
2 41619  97.4566 288.4964 0011206 216.5342 143.5125 15.20914444 51487
PRATHAM                 
1 41783U 16059A   17226.71185874  .00000020  00000-0  13489-4 0  9994
2 41783  98.1623 287.4656 0033067 339.5683  20.4194 14.62849475 47155
ALSAT 1N                
1 41789U 16059G   17227.40373610  .00000073  00000-0  23174-4 0  9994
2 41789  98.1631 288.7653 0027765 331.7410  28.2284 14.64064021 47278
NAYIF-1 (EO-88)         
1 42017U 17008BX  17226.90675163  .00001341  00000-0  59777-4 0  9993
2 42017  97.4906 288.2410 0007156  29.3960 330.7678 15.23155474 27420
LILACSAT-1              
1 42725U 98067ME  17227.25303153  .00009333  00000-0  13716-3 0  9990
2 42725  51.6397 103.0871 0007228 164.0427 196.0794 15.56226147 12677
MAX VALIER SAT          
1 42778U 17036P   17226.72579848  .00000935  00000-0  45934-4 0  9999
2 42778  97.4472 285.8648 0014446  66.3806 293.8944 15.20433777  7928
